H1 CPF 01  gfz 2021 06 20 00  6711 terrasarx 
H2 0702601  6201 31698    2021 06 20 00 59 42 2021 06 25 00 00 42   120 1 1  0 0 0
H9
10 0 59385   3582.000000  0    -653270.275   1005934.259   6772510.138
10 0 59385   3702.000000  0    -390163.511   1872338.534   6607025.043
10 0 59385   3822.000000  0    -105413.536   2701277.709   6325434.505
10 0 59385   3942.000000  0     195226.451   3477947.133   5932658.453
10 0 59385   4062.000000  0     505472.786   4188548.248   5435566.400
10 0 59385   4182.000000  0     818639.623   4820537.894   4842863.160
10 0 59385   4302.000000  0    1127779.877   5362856.614   4164942.056
10 0 59385   4422.000000  0    1425833.936   5806129.535   3413706.686
10 0 59385   4542.000000  0    1705786.552   6142839.241   2602367.377
10 0 59385   4662.000000  0    1960827.490   6367464.321   1745204.951
10 0 59385   4782.000000  0    2184508.266   6476576.675    857314.411
10 0 59385   4902.000000  0    2370895.019   6468896.362    -45668.548
10 0 59385   5022.000000  0    2514711.237   6345303.495   -947850.421
10 0 59385   5142.000000  0    2611468.049   6108807.580  -1833367.662
10 0 59385   5262.000000  0    2657578.841   5764474.406  -2686672.967
10 0 59385   5382.000000  0    2650454.966   5319312.648  -3492814.487
10 0 59385   5502.000000  0    2588579.995   4782121.978  -4237701.399
10 0 59385   5622.000000  0    2471560.520   4163308.517  -4908348.965
10 0 59385   5742.000000  0    2300153.338   3474673.456  -5493099.542
10 0 59385   5862.000000  0    2076269.500   2729180.560  -5981817.075
10 0 59385   5982.000000  0    1802954.771   1940706.469  -6366052.784
10 0 59385   6102.000000  0    1484347.658   1123780.332  -6639178.970
10 0 59385   6222.000000  0    1125616.981    293318.023  -6796492.782
10 0 59385   6342.000000  0     732877.758   -535646.119  -6835289.303
10 0 59385   6462.000000  0     313087.701  -1348226.175  -6754901.862
10 0 59385   6582.000000  0    -126072.927  -2129944.348  -6556710.882
10 0 59385   6702.000000  0    -576337.566  -2866981.903  -6244124.276
10 0 59385   6822.000000  0   -1029005.106  -3546420.645  -5822525.734
10 0 59385   6942.000000  0   -1475103.087  -4156467.682  -5299190.863
10 0 59385   7062.000000  0   -1905561.288  -4686662.577  -4683173.820
10 0 59385   7182.000000  0   -2311393.282  -5128063.335  -3985162.063
10 0 59385   7302.000000  0   -2683882.131  -5473405.667  -3217300.344
10 0 59385   7422.000000  0   -3014765.781  -5717232.242  -2392986.756
10 0 59385   7542.000000  0   -3296418.677  -5855989.404  -1526643.359
10 0 59385   7662.000000  0   -3522025.358  -5888088.118   -633463.787
10 0 59385   7782.000000  0   -3685740.463  -5813925.687    270857.744
10 0 59385   7902.000000  0   -3782830.757  -5635867.334   1170409.212
10 0 59385   8022.000000  0   -3809795.917  -5358187.903   2049349.791
10 0 59385   8142.000000  0   -3764464.107  -4986974.036   2892198.152
10 0 59385   8262.000000  0   -3646060.256  -4529990.604   3684112.727
10 0 59385   8382.000000  0   -3455245.510  -3996515.008   4411159.114
10 0 59385   8502.000000  0   -3194126.802  -3397142.656   5060558.607
10 0 59385   8622.000000  0   -2866236.918  -2743569.571   5620912.244
10 0 59385   8742.000000  0   -2476485.542  -2048358.483   6082397.720
10 0 59385   8862.000000  0   -2031083.200  -1324693.499   6436937.263
10 0 59385   8982.000000  0   -1537438.753   -586126.181   6678335.089
10 0 59385   9102.000000  0   -1004032.229    153681.109   6802377.685
10 0 59385   9222.000000  0    -440269.033    881206.369   6806901.447
10 0 59385   9342.000000  0     143685.613   1583314.454   6691828.931
10 0 59385   9462.000000  0     737089.730   2247494.120   6459170.284
10 0 59385   9582.000000  0    1328821.753   2862080.826   6112989.586
10 0 59385   9702.000000  0    1907587.937   3416462.121   5659338.469
10 0 59385   9822.000000  0    2462137.512   3901264.319   5106156.844
10 0 59385   9942.000000  0    2981483.237   4308516.283   4463139.918
10 0 59385  10062.000000  0    3455120.968   4631785.232   3741572.173
10 0 59385  10182.000000  0    3873243.882   4866284.034   2954134.539
10 0 59385  10302.000000  0    4226951.638   5008949.111   2114681.785
10 0 59385  10422.000000  0    4508440.293   5058479.515   1237993.216
10 0 59385  10542.000000  0    4711174.275   5015343.517    339509.243
10 0 59385  10662.000000  0    4830035.573   4881748.988   -564950.531
10 0 59385  10782.000000  0    4861442.174   4661575.286  -1459474.863
10 0 59385  10902.000000  0    4803436.996   4360272.870  -2328348.008
10 0 59385  11022.000000  0    4655744.140   3984732.816  -3156332.416
10 0 59385  11142.000000  0    4419790.572   3543128.879  -3928940.294
10 0 59385  11262.000000  0    4098692.643   3044736.974  -4632687.655
10 0 59385  11382.000000  0    3697210.328   2499736.674  -5255326.188
10 0 59385  11502.000000  0    3221670.408   1919000.061  -5786049.979
10 0 59385  11622.000000  0    2679859.635   1313872.826  -6215673.727
10 0 59385  11742.000000  0    2080891.415    695952.517  -6536780.064
10 0 59385  11862.000000  0    1435050.050     76868.867  -6743835.371
10 0 59385  11982.000000  0     753615.362   -531930.738  -6833276.661
10 0 59385  12102.000000  0      48666.923  -1119388.895  -6803566.182
10 0 59385  12222.000000  0    -667125.105  -1675033.353  -6655213.226
10 0 59385  12342.000000  0   -1380721.598  -2189158.501  -6390767.271
10 0 59385  12462.000000  0   -2078946.792  -2652992.397  -6014779.281
10 0 59385  12582.000000  0   -2748726.083  -3058845.024  -5533731.215
10 0 59385  12702.000000  0   -3377327.659  -3400237.084  -4955936.335
10 0 59385  12822.000000  0   -3952605.430  -3672007.621  -4291407.163
10 0 59385  12942.000000  0   -4463236.247  -3870396.205  -3551692.056
10 0 59385  13062.000000  0   -4898947.646  -3993098.919  -2749683.338
10 0 59385  13182.000000  0   -5250731.038  -4039296.343  -1899397.748
10 0 59385  13302.000000  0   -5511034.381  -4009651.660  -1015732.851
10 0 59385  13422.000000  0   -5673929.572  -3906278.894   -114204.024
10 0 59385  13542.000000  0   -5735250.075  -3732681.551    789333.173
10 0 59385  13662.000000  0   -5692694.480  -3493662.988   1678970.657
10 0 59385  13782.000000  0   -5545891.263  -3195208.831   2539038.005
10 0 59385  13902.000000  0   -5296424.192  -2844345.752   3354386.695
10 0 59385  14022.000000  0   -4947818.576  -2448981.300   4110664.056
10 0 59385  14142.000000  0   -4505487.565  -2017726.839   4794571.024
10 0 59385  14262.000000  0   -3976640.862  -1559709.867   5394096.048
10 0 59385  14382.000000  0   -3370160.610  -1084381.323   5898723.616
10 0 59385  14502.000000  0   -2696445.583   -601320.239   6299616.158
10 0 59385  14622.000000  0   -1967225.415   -120039.580   6589763.934
10 0 59385  14742.000000  0   -1195350.718    350200.499   6764099.947
10 0 59385  14862.000000  0    -394564.757    800568.833   6819582.614
10 0 59385  14982.000000  0     420741.325   1222828.108   6755245.407
10 0 59385  15102.000000  0    1235786.303   1609485.238   6572212.787
10 0 59385  15222.000000  0    2035666.144   1953924.657   6273681.331
10 0 59385  15342.000000  0    2805625.649   2250521.541   5864867.348
10 0 59385  15462.000000  0    3531331.954   2494734.786   5352922.074
10 0 59385  15582.000000  0    4199144.802   2683177.697   4746812.204
10 0 59385  15702.000000  0    4796376.741   2813665.540   4057168.638
10 0 59385  15822.000000  0    5311542.121   2885238.889   3296105.916
10 0 59385  15942.000000  0    5734587.685   2898160.133   2477008.354
10 0 59385  16062.000000  0    6057094.598   2853884.488   1614293.866
10 0 59385  16182.000000  0    6272453.790   2755007.182    723156.001
10 0 59385  16302.000000  0    6376005.610   2605185.571   -180711.593
10 0 59385  16422.000000  0    6365139.505   2409038.337  -1081401.123
10 0 59385  16542.000000  0    6239351.399   2172024.883  -1963078.162
10 0 59385  16662.000000  0    6000262.014   1900310.560  -2810266.653
10 0 59385  16782.000000  0    5651591.156   1600617.475  -3608127.068
10 0 59385  16902.000000  0    5199090.439   1280066.087  -4342718.875
10 0 59385  17022.000000  0    4650435.644    946011.890  -5001242.689
10 0 59385  17142.000000  0    4015084.443    605882.645  -5572256.702
10 0 59385  17262.000000  0    3304103.819    267018.738  -6045866.724
10 0 59385  17382.000000  0    2529969.524    -63479.682  -6413887.444
10 0 59385  17502.000000  0    1706342.852   -378896.338  -6669971.941
10 0 59385  17622.000000  0     847830.385   -673030.543  -6809710.923
10 0 59385  17742.000000  0     -30272.914   -940315.091  -6830701.286
10 0 59385  17862.000000  0    -912250.819  -1175917.853  -6732581.348
10 0 59385  17982.000000  0   -1782239.891  -1375826.714  -6517036.997
10 0 59385  18102.000000  0   -2624508.826  -1536916.673  -6187775.820
10 0 59385  18222.000000  0   -3423736.288  -1656997.758  -5750469.193
10 0 59385  18342.000000  0   -4165286.095  -1734844.235  -5212666.245
10 0 59385  18462.000000  0   -4835477.278  -1770203.899  -4583675.221
10 0 59385  18582.000000  0   -5421840.840  -1763786.714  -3874413.311
10 0 59385  18702.000000  0   -5913359.992  -1717233.332  -3097227.265
10 0 59385  18822.000000  0   -6300688.006  -1633063.488  -2265684.868
10 0 59385  18942.000000  0   -6576337.529  -1514604.726  -1394341.108
10 0 59385  19062.000000  0   -6734836.814  -1365903.316   -498482.687
10 0 59385  19182.000000  0   -6772848.184  -1191618.754    406144.753
10 0 59385  19302.000000  0   -6689244.470   -996904.073   1303620.699
10 0 59385  19422.000000  0   -6485140.802   -787276.066   2178138.854
10 0 59385  19542.000000  0   -6163881.134   -568478.163   3014294.565
10 0 59385  19662.000000  0   -5730979.852   -346339.217   3797364.474
10 0 59385  19782.000000  0   -5194018.974   -126632.104   4513572.057
10 0 59385  19902.000000  0   -4562504.800     85063.431   5150331.979
10 0 59385  20022.000000  0   -3847690.035    283491.722   5696469.796
99
